NORAD_CAT_ID,OBJECT_NAME,OBJECT_TYPE,EPOCH,MEAN_MOTION,ECCENTRICITY,INCLINATION,RA_OF_ASC_NODE,ARG_OF_PERICENTER,MEAN_ANOMALY,BSTAR,MEAN_MOTION_DOT,MEAN_MOTION_DDOT,TLE_LINE0,TLE_LINE1,TLE_LINE2,SEMIMAJOR_AXIS,PERIOD,APOGEE,PERIGEE,DECAYED
53802.0,STARLINK-4726,PAYLOAD,2023-07-28 11:27:08,15.08833977,0.0001338,53.216,232.1014,91.4253,268.6892,-4.4059e-05,-9.89e-06,0.0,0 STARLINK-4726,1 53802U 22111AF  23209.47718011 -.00000989  00000-0 -44059-4 0  9994,2 53802  53.2160 232.1014 0001338  91.4253 268.6892 15.08833977 49611,6917.899,95.438,540.689,538.838,0.0
53802.0,STARLINK-4726,PAYLOAD,2023-07-29 08:07:08,15.08836559,0.0001395,53.2164,228.2353,100.2293,259.8857,1.7269e-06,-2.6e-06,0.0,0 STARLINK-4726,1 53802U 22111AF  23210.33829816 -.00000260  00000-0  17269-5 0  9992,2 53802  53.2164 228.2353 0001395 100.2293 259.8857 15.08836559 48939,6917.891,95.438,540.721,538.791,0.0
53802.0,STARLINK-4726,PAYLOAD,2023-07-30 17:30:15,15.0883525,0.0001319,53.2163,221.9901,93.8557,266.2586,6.912e-05,8.12e-06,0.0,0 STARLINK-4726,1 53802U 22111AF  23211.72934127  .00000812  00000-0  69120-4 0  9992,2 53802  53.2163 221.9901 0001319  93.8557 266.2586 15.08835250 49145,6917.895,95.438,540.672,538.847,0.0
53802.0,STARLINK-4726,PAYLOAD,2023-07-31 23:42:34,15.08835864,0.0001243,53.216,216.3406,92.0507,268.0628,3.8531e-05,3.25e-06,0.0,0 STARLINK-4726,1 53802U 22111AF  23212.98790354  .00000325  00000-0  38531-4 0  9994,2 53802  53.2160 216.3406 0001243  92.0507 268.0628 15.08835864 49331,6917.893,95.438,540.618,538.898,0.0
53802.0,STARLINK-4726,PAYLOAD,2023-08-02 01:08:45,15.0883874,0.0001213,53.2156,211.5824,91.1744,268.9387,2.5728e-05,1.22e-06,0.0,0 STARLINK-4726,1 53802U 22111AF  23214.04774341  .00000122  00000-0  25728-4 0  9990,2 53802  53.2156 211.5824 0001213  91.1744 268.9387 15.08838740 49491,6917.884,95.438,540.588,538.91,0.0
53802.0,STARLINK-4726,PAYLOAD,2023-08-03 08:56:27,15.08838041,0.0001229,53.2156,205.6342,90.3124,269.8009,4.0252e-05,3.53e-06,0.0,0 STARLINK-4726,1 53802U 22111AF  23215.37254492  .00000353  00000-0  40252-4 0  9992,2 53802  53.2156 205.6342 0001229  90.3124 269.8009 15.08838041 49697,6917.886,95.438,540.602,538.901,0.0
53802.0,STARLINK-4726,PAYLOAD,2023-08-05 02:16:29,15.08839399,0.0001361,53.2162,197.903,86.2561,273.8587,4.3136e-05,3.99e-06,0.0,0 STARLINK-4726,1 53802U 22111AF  23217.09478401  .00000399  00000-0  43136-4 0  9995,2 53802  53.2162 197.9030 0001361  86.2561 273.8587 15.08839399 49959,6917.882,95.438,540.689,538.806,0.0
53802.0,STARLINK-4726,PAYLOAD,2023-08-06 05:18:02,15.08839935,0.0001341,53.2162,192.8479,81.7288,278.3856,3.0112e-05,1.91e-06,0.0,0 STARLINK-4726,1 53802U 22111AF  23218.22086389  .00000191  00000-0  30112-4 0  9991,2 53802  53.2162 192.8479 0001341  81.7288 278.3856 15.08839935 50120,6917.881,95.438,540.673,538.818,0.0
53802.0,STARLINK-4726,PAYLOAD,2023-08-07 05:08:50,15.08836982,0.0001297,53.2168,188.3875,82.0907,278.0232,-2.8431e-05,-7.4e-06,0.0,0 STARLINK-4726,1 53802U 22111AF  23219.21447057 -.00000740  00000-0 -28431-4 0  9997,2 53802  53.2168 188.3875 0001297  82.0907 278.0232 15.08836982 50278,6917.89,95.438,540.652,538.857,0.0
53802.0,STARLINK-4726,PAYLOAD,2023-08-08 06:34:59,15.08848235,0.0001236,53.2162,183.631,86.0132,274.1001,0.0001092,1.451e-05,0.0,0 STARLINK-4726,1 53802U 22111AF  23220.27430155  .00001451  00000-0  10920-3 0  9997,2 53802  53.2162 183.6310 0001236  86.0132 274.1001 15.08848235 50434,6917.855,95.437,540.575,538.865,0.0
53802.0,STARLINK-4726,PAYLOAD,2023-08-08 14:31:55,15.08841967,0.0001177,53.2161,182.1441,85.8938,274.2188,8.724e-05,1.101e-05,0.0,0 STARLINK-4726,1 53802U 22111AF  23220.60550541  .00001101  00000-0  87240-4 0  9998,2 53802  53.2161 182.1441 0001177  85.8938 274.2188 15.08841967 50484,6917.874,95.437,540.554,538.925,0.0
53802.0,STARLINK-4726,PAYLOAD,2023-08-09 08:01:10,15.08834273,0.000122,53.2164,178.8733,86.0726,274.0405,3.8419e-05,3.24e-06,0.0,0 STARLINK-4726,1 53802U 22111AF  23221.33415422  .00000324  00000-0  38419-4 0  9997,2 53802  53.2164 178.8733 0001220  86.0726 274.0405 15.08834273 50594,6917.898,95.438,540.607,538.919,0.0
53802.0,STARLINK-4726,PAYLOAD,2023-08-10 06:16:34,15.0884578,0.0001643,53.2162,174.71,78.7682,281.3495,6.8055e-06,-1.8e-06,0.0,0 STARLINK-4726,1 53802U 22111AF  23222.26150895 -.00000180  00000-0  68055-5 0  9991,2 53802  53.2162 174.7100 0001643  78.7682 281.3495 15.08845780 50734,6917.863,95.437,540.864,538.591,0.0
53802.0,STARLINK-4726,PAYLOAD,2023-08-11 14:04:16,15.08840409,8.37e-05,53.2192,168.7622,84.9631,275.1456,1.4073e-05,-6.4e-07,0.0,0 STARLINK-4726,1 53802U 22111AF  23223.58630708 -.00000064  00000-0  14073-4 0  9994,2 53802  53.2192 168.7622 0000837  84.9631 275.1456 15.08840409 50939,6917.879,95.438,540.323,539.165,0.0
53802.0,STARLINK-4726,PAYLOAD,2023-08-12 20:16:36,15.08842602,0.0001279,53.2173,163.1107,101.0364,259.0772,-9.8291e-05,-1.852e-05,0.0,0 STARLINK-4726,1 53802U 22111AF  23224.84487205 -.00001852  00000-0 -98291-4 0  9997,2 53802  53.2173 163.1107 0001279 101.0364 259.0772 15.08842602 51121,6917.872,95.437,540.622,538.853,0.0
53802.0,STARLINK-4726,PAYLOAD,2023-08-13 23:18:10,15.08832643,0.0001497,53.2168,158.0576,94.8196,265.2967,2.7915e-05,1.56e-06,0.0,0 STARLINK-4726,1 53802U 22111AF  23225.97095833  .00000156  00000-0  27915-4 0  9993,2 53802  53.2168 158.0576 0001497  94.8196 265.2967 15.08832643 51299,6917.903,95.438,540.803,538.732,0.0
53802.0,STARLINK-4726,PAYLOAD,2023-08-15 02:19:44,15.0883937,0.0001385,53.2186,153.0051,93.132,266.9831,3.9867e-05,3.47e-06,0.0,0 STARLINK-4726,1 53802U 22111AF  23227.09703704  .00000347  00000-0  39867-4 0  9992,2 53802  53.2186 153.0051 0001385  93.1320 266.9831 15.08839370 51460,6917.882,95.438,540.705,538.789,0.0
53802.0,STARLINK-4726,PAYLOAD,2023-08-16 03:45:54,15.08842011,0.0001224,53.2179,148.2453,91.9529,268.1603,4.6371e-05,4.5e-06,0.0,0 STARLINK-4726,1 53802U 22111AF  23228.15687637  .00000450  00000-0  46371-4 0  9999,2 53802  53.2179 148.2453 0001224  91.9529 268.1603 15.08842011 51628,6917.874,95.437,540.586,538.892,0.0
53802.0,STARLINK-4726,PAYLOAD,2023-08-17 17:55:09,15.08836053,0.0001246,53.2184,141.1067,98.2582,261.8551,-1.1912e-06,-3.07e-06,0.0,0 STARLINK-4726,1 53802U 22111AF  23229.74664186 -.00000307  00000-0 -11912-5 0  9996,2 53802  53.2184 141.1067 0001246  98.2582 261.8551 15.08836053 51867,6917.892,95.438,540.619,538.895,0.0
53802.0,STARLINK-4726,PAYLOAD,2023-08-18 03:27:27,15.08849818,0.0001198,53.2175,139.3241,87.4699,272.6431,2.31e-05,8e-07,0.0,0 STARLINK-4726,1 53802U 22111AF  23230.14407242  .00000080  00000-0  23100-4 0  9997,2 53802  53.2175 139.3241 0001198  87.4699 272.6431 15.08849818 51922,6917.85,95.437,540.544,538.887,0.0
53802.0,STARLINK-4726,PAYLOAD,2023-08-19 03:18:15,15.08843992,0.0001222,53.2162,134.863,96.8514,263.2617,1.5656e-05,-3.9e-07,0.0,0 STARLINK-4726,1 53802U 22111AF  23231.13767596 -.00000039  00000-0  15656-4 0  9990,2 53802  53.2162 134.8630 0001222  96.8514 263.2617 15.08843992 52074,6917.868,95.437,540.579,538.888,0.0
53802.0,STARLINK-4726,PAYLOAD,2023-08-20 03:09:02,15.08838297,0.0001257,53.2165,130.4021,95.3396,264.774,-2.5192e-05,-6.89e-06,0.0,0 STARLINK-4726,1 53802U 22111AF  23232.13128312 -.00000689  00000-0 -25192-4 0  9996,2 53802  53.2165 130.4021 0001257  95.3396 264.7740 15.08838297 52225,6917.886,95.438,540.62,538.881,0.0
53802.0,STARLINK-4726,PAYLOAD,2023-08-21 02:59:48,15.0885472,0.0001298,53.2167,125.9422,91.6054,268.5087,1.8925e-05,1.3e-07,0.0,0 STARLINK-4726,1 53802U 22111AF  23233.12487236  .00000013  00000-0  18925-4 0  9994,2 53802  53.2167 125.9422 0001298  91.6054 268.5087 15.08854720 52377,6917.835,95.437,540.598,538.802,0.0
53802.0,STARLINK-4726,PAYLOAD,2023-08-21 20:29:04,15.08834619,0.0001571,53.2179,122.6696,105.6462,254.4703,-1.0343e-05,-4.53e-06,0.0,0 STARLINK-4726,1 53802U 22111AF  23233.85352836 -.00000453  00000-0 -10343-4 0  9997,2 53802  53.2179 122.6696 0001571 105.6462 254.4703 15.08834619 52486,6917.897,95.438,540.849,538.675,0.0
53802.0,STARLINK-4726,PAYLOAD,2023-08-23 01:06:00,15.08844835,0.0001279,53.2176,117.3207,85.0402,275.0736,8.9954e-07,-2.74e-06,0.0,0 STARLINK-4726,1 53802U 22111AF  23235.04584414 -.00000274  00000-0  89954-6 0  9995,2 53802  53.2176 117.3207 0001279  85.0402 275.0736 15.08844835 52668,6917.866,95.437,540.615,538.846,0.0
53802.0,STARLINK-4726,PAYLOAD,2023-08-24 02:32:11,15.08840708,0.0001324,53.2178,112.5612,86.6607,273.4537,7.5291e-05,9.11e-06,0.0,0 STARLINK-4726,1 53802U 22111AF  23236.10568672  .00000911  00000-0  75291-4 0  9995,2 53802  53.2178 112.5612 0001324  86.6607 273.4537 15.08840708 53636,6917.878,95.438,540.659,538.827,0.0
53802.0,STARLINK-4726,PAYLOAD,2023-08-25 02:22:58,15.08827868,0.000132,53.2177,108.1004,93.0085,267.1059,0.00020974,3.051e-05,0.0,0 STARLINK-4726,1 53802U 22111AF  23237.09929057  .00003051  00000-0  20974-3 0  9997,2 53802  53.2177 108.1004 0001320  93.0085 267.1059 15.08827868 52976,6917.917,95.438,540.696,538.869,0.0
53802.0,STARLINK-4726,PAYLOAD,2023-08-25 19:52:12,15.08844527,0.000121,53.2174,104.8292,95.4544,264.6586,4.5593e-05,4.38e-06,0.0,0 STARLINK-4726,1 53802U 22111AF  23237.82792506  .00000438  00000-0  45593-4 0  9996,2 53802  53.2174 104.8292 0001210  95.4544 264.6586 15.08844527 53899,6917.867,95.437,540.569,538.894,0.0
53802.0,STARLINK-4726,PAYLOAD,2023-08-26 00:38:21,15.08849467,0.0001273,53.2174,103.9371,92.9027,267.211,8.9385e-05,1.135e-05,0.0,0 STARLINK-4726,1 53802U 22111AF  23238.02664020  .00001135  00000-0  89385-4 0  9990,2 53802  53.2174 103.9371 0001273  92.9027 267.2110 15.08849467 53119,6917.851,95.437,540.597,538.836,0.0
53802.0,STARLINK-4726,PAYLOAD,2023-08-26 14:56:50,15.08834022,0.0001947,53.2178,101.2531,141.771,218.342,4.0633e-06,-2.23e-06,0.0,0 STARLINK-4726,1 53802U 22111AF  23238.62280994 -.00000223  00000-0  40633-5 0  9992,2 53802  53.2178 101.2531 0001947 141.7710 218.3420 15.08834022 54014,6917.899,95.438,541.111,538.417,0.0
